{"type": "FeatureCollection", "features": [ {"type": "Feature", "properties": {"norad_id": 54234, "name": "NOAA 21 (JPSS-2)", "group": "weather", "lat": -0.8004713863523617, "lon": -72.71844080926071, "alt_km": 828.6836366659227, "timestamp": "2025-12-16T21:38:56.812078+00:00", "meta": {"OBJECT_NAME": "NOAA 21 (JPSS-2)", "OBJECT_ID": "2022-150A", "EPOCH": "2025-12-16T08:07:10.774560", "MEAN_MOTION": 14.19525332, "ECCENTRICITY": 0.000207, "INCLINATION": 98.7465, "RA_OF_ASC_NODE": 286.6017, "ARG_OF_PERICENTER": 31.0026, "MEAN_ANOMALY": 329.1272, "EPHEMERIS_TYPE": 0, "CLASSIFICATION_TYPE": "U", "NORAD_CAT_ID": 54234, "ELEMENT_SET_NO": 999, "REV_AT_EPOCH": 16060, "BSTAR": 5.3931305e-05, "MEAN_MOTION_DOT": 7e-07, "MEAN_MOTION_DDOT": 0}, "tle": {"line1": "1 54234U 22150A   25350.33831915  .00000070  00000+0  53931-4 0  9997", "line2": "2 54234  98.7465 286.6017 0002070  31.0026 329.1272 14.19525332160604"}}, "geometry": {"type": "Point", "coordinates": [-72.71844080926071, -0.8004713863523617]}}, {"type": "Feature", "properties": {"norad_id": 54743, "name": "METEOSAT-12 (MTG-I1)", "group": "weather", "lat": 0.32639443455598455, "lon": 50.230703446426055, "alt_km": 35792.00310918465, "timestamp": "2025-12-16T21:38:56.812090+00:00", "meta": {"OBJECT_NAME": "METEOSAT-12 (MTG-I1)", "OBJECT_ID": "2022-170C", "EPOCH": "2025-12-16T06:30:24.719616", "MEAN_MOTION": 1.00269912, "ECCENTRICITY": 0.00015433, "INCLINATION": 0.6906, "RA_OF_ASC_NODE": 24.1949, "ARG_OF_PERICENTER": 239.3596, "MEAN_ANOMALY": 278.9283, "EPHEMERIS_TYPE": 0, "CLASSIFICATION_TYPE": "U", "NORAD_CAT_ID": 54743, "ELEMENT_SET_NO": 999, "REV_AT_EPOCH": 1114, "BSTAR": 0, "MEAN_MOTION_DOT": 1.5e-07, "MEAN_MOTION_DDOT": 0}, "tle": {"line1": "1 54743U 22170C   25350.27111944  .00000015  00000+0  00000+0 0  9993", "line2": "2 54743   0.6906  24.1949 0001543 239.3596 278.9283  1.00269912 11141"}}, "geometry": {"type": "Point", "coordinates": [50.230703446426055, 0.32639443455598455]}}, {"type": "Feature", "properties": {"norad_id": 55973, "name": "TIANMU-1 03", "group": "weather", "lat": -57.23772882088112, "lon": 165.49938704054512, "alt_km": 450.986147458676, "timestamp": "2025-12-16T21:38:56.812101+00:00", "meta": {"OBJECT_NAME": "TIANMU-1 03", "OBJECT_ID": "2023-039A", "EPOCH": "2025-12-16T09:25:59.654784", "MEAN_MOTION": 15.4103284, "ECCENTRICITY": 0.00042437, "INCLINATION": 97.5101, "RA_OF_ASC_NODE": 153.1465, "ARG_OF_PERICENTER": 50.6578, "MEAN_ANOMALY": 309.5044, "EPHEMERIS_TYPE": 0, "CLASSIFICATION_TYPE": "U", "NORAD_CAT_ID": 55973, "ELEMENT_SET_NO": 999, "REV_AT_EPOCH": 15262, "BSTAR": 0.00030273631, "MEAN_MOTION_DOT": 0.00012417, "MEAN_MOTION_DDOT": 0}, "tle": {"line1": "1 55973U 23039A   25350.39305156  .00012417  00000+0  30274-3 0  9996", "line2": "2 55973  97.5101 153.1465 0004243  50.6578 309.5044 15.41032840152622"}}, "geometry": {"type": "Point", "coordinates": [165.49938704054512, -57.23772882088112]}}, {"type": "Feature", "properties": {"norad_id": 55974, "name": "TIANMU-1 04", "group": "weather", "lat": 60.21031636782141, "lon": 139.5477405837493, "alt_km": 433.02871282390333, "timestamp": "2025-12-16T21:38:56.812111+00:00", "meta": {"OBJECT_NAME": "TIANMU-1 04", "OBJECT_ID": "2023-039B", "EPOCH": "2025-12-16T08:55:14.862720", "MEAN_MOTION": 15.41370853, "ECCENTRICITY": 0.00049096, "INCLINATION": 97.5033, "RA_OF_ASC_NODE": 152.3141, "ARG_OF_PERICENTER": 45.3704, "MEAN_ANOMALY": 314.7943, "EPHEMERIS_TYPE": 0, "CLASSIFICATION_TYPE": "U", "NORAD_CAT_ID": 55974, "ELEMENT_SET_NO": 999, "REV_AT_EPOCH": 15262, "BSTAR": 0.00029458836, "MEAN_MOTION_DOT": 0.00012218, "MEAN_MOTION_DDOT": 0}, "tle": {"line1": "1 55974U 23039B   25350.37169980  .00012218  00000+0  29459-3 0  9990", "line2": "2 55974  97.5033 152.3141 0004909  45.3704 314.7943 15.41370853152625"}}, "geometry": {"type": "Point", "coordinates": [139.5477405837493, 60.21031636782141]}}, {"type": "Feature", "properties": {"norad_id": 55975, "name": "TIANMU-1 05", "group": "weather", "lat": 82.0322553071863, "lon": 82.91307784169463, "alt_km": 432.9779215024946, "timestamp": "2025-12-16T21:38:56.812121+00:00", "meta": {"OBJECT_NAME": "TIANMU-1 05", "OBJECT_ID": "2023-039C", "EPOCH": "2025-12-16T08:48:15.241248", "MEAN_MOTION": 15.4098879, "ECCENTRICITY": 0.00042695, "INCLINATION": 97.508, "RA_OF_ASC_NODE": 152.8016, "ARG_OF_PERICENTER": 68.2866, "MEAN_ANOMALY": 291.8835, "EPHEMERIS_TYPE": 0, "CLASSIFICATION_TYPE": "U", "NORAD_CAT_ID": 55975, "ELEMENT_SET_NO": 999, "REV_AT_EPOCH": 15260, "BSTAR": 0.00028174164, "MEAN_MOTION_DOT": 0.00011532, "MEAN_MOTION_DDOT": 0}, "tle": {"line1": "1 55975U 23039C   25350.36684307  .00011532  00000+0  28174-3 0  9996", "line2": "2 55975  97.5080 152.8016 0004269  68.2866 291.8835 15.40988790152603"}}, "geometry": {"type": "Point", "coordinates": [82.91307784169463, 82.0322553071863]}}, {"type": "Feature", "properties": {"norad_id": 55976, "name": "TIANMU-1 06", "group": "weather", "lat": 49.183104919110825, "lon": 145.0353019334548, "alt_km": 434.42284728667255, "timestamp": "2025-12-16T21:38:56.812182+00:00", "meta": {"OBJECT_NAME": "TIANMU-1 06", "OBJECT_ID": "2023-039D", "EPOCH": "2025-12-16T08:58:12.232416", "MEAN_MOTION": 15.41422235, "ECCENTRICITY": 0.00045711, "INCLINATION": 97.509, "RA_OF_ASC_NODE": 153.2769, "ARG_OF_PERICENTER": 62.9899, "MEAN_ANOMALY": 297.1814, "EPHEMERIS_TYPE": 0, "CLASSIFICATION_TYPE": "U", "NORAD_CAT_ID": 55976, "ELEMENT_SET_NO": 999, "REV_AT_EPOCH": 15262, "BSTAR": 0.00028559303, "MEAN_MOTION_DOT": 0.00011861, "MEAN_MOTION_DDOT": 0}, "tle": {"line1": "1 55976U 23039D   25350.37375269  .00011861  00000+0  28559-3 0  9994", "line2": "2 55976  97.5090 153.2769 0004571  62.9899 297.1814 15.41422235152624"}}, "geometry": {"type": "Point", "coordinates": [145.0353019334548, 49.183104919110825]}}, {"type": "Feature", "properties": {"norad_id": 56232, "name": "FENGYUN 3G", "group": "weather", "lat": -9.588304166016504, "lon": -162.18672787267886, "alt_km": 413.43348004201835, "timestamp": "2025-12-16T21:38:56.812196+00:00", "meta": {"OBJECT_NAME": "FENGYUN 3G", "OBJECT_ID": "2023-055A", "EPOCH": "2025-12-16T07:48:46.873728", "MEAN_MOTION": 15.5386523, "ECCENTRICITY": 0.00093614, "INCLINATION": 49.9928, "RA_OF_ASC_NODE": 208.9479, "ARG_OF_PERICENTER": 164.9135, "MEAN_ANOMALY": 195.2114, "EPHEMERIS_TYPE": 0, "CLASSIFICATION_TYPE": "U", "NORAD_CAT_ID": 56232, "ELEMENT_SET_NO": 999, "REV_AT_EPOCH": 15158, "BSTAR": 0.00036515703, "MEAN_MOTION_DOT": 0.00023611, "MEAN_MOTION_DDOT": 0}, "tle": {"line1": "1 56232U 23055A   25350.32554252  .00023611  00000+0  36516-3 0  9992", "line2": "2 56232  49.9928 208.9479 0009361 164.9135 195.2114 15.53865230151589"}}, "geometry": {"type": "Point", "coordinates": [-162.18672787267886, -9.588304166016504]}}, {"type": "Feature", "properties": {"norad_id": 57166, "name": "METEOR-M2 3", "group": "weather", "lat": -26.582458481590646, "lon": 48.73068160662118, "alt_km": 814.9862161045712, "timestamp": "2025-12-16T21:38:56.812207+00:00", "meta": {"OBJECT_NAME": "METEOR-M2 3", "OBJECT_ID": "2023-091A", "EPOCH": "2025-12-16T08:17:04.516224", "MEAN_MOTION": 14.24026496, "ECCENTRICITY": 0.00036992, "INCLINATION": 98.6376, "RA_OF_ASC_NODE": 43.8215, "ARG_OF_PERICENTER": 358.311, "MEAN_ANOMALY": 1.8056, "EPHEMERIS_TYPE": 0, "CLASSIFICATION_TYPE": "U", "NORAD_CAT_ID": 57166, "ELEMENT_SET_NO": 999, "REV_AT_EPOCH": 12849, "BSTAR": 2.500434e-05, "MEAN_MOTION_DOT": 1.4e-07, "MEAN_MOTION_DDOT": 0}, "tle": {"line1": "1 57166U 23091A   25350.34519116  .00000014  00000+0  25004-4 0  9994", "line2": "2 57166  98.6376  43.8215 0003699 358.3110   1.8056 14.24026496128499"}}, "geometry": {"type": "Point", "coordinates": [48.73068160662118, -26.582458481590646]}}, {"type": "Feature", "properties": {"norad_id": 57399, "name": "TIANMU-1 07", "group": "weather", "lat": -79.84843433655101, "lon": 86.28222453103349, "alt_km": 492.12289764276557, "timestamp": "2025-12-16T21:38:56.812222+00:00", "meta": {"OBJECT_NAME": "TIANMU-1 07", "OBJECT_ID": "2023-101A", "EPOCH": "2025-12-16T09:26:21.108768", "MEAN_MOTION": 15.2812547, "ECCENTRICITY": 0.00054718, "INCLINATION": 97.2879, "RA_OF_ASC_NODE": 40.1628, "ARG_OF_PERICENTER": 72.3204, "MEAN_ANOMALY": 287.8633, "EPHEMERIS_TYPE": 0, "CLASSIFICATION_TYPE": "U", "NORAD_CAT_ID": 57399, "ELEMENT_SET_NO": 999, "REV_AT_EPOCH": 13371, "BSTAR": 0.00020423388, "MEAN_MOTION_DOT": 5.529e-05, "MEAN_MOTION_DDOT": 0}, "tle": {"line1": "1 57399U 23101A   25350.39329987  .00005529  00000+0  20423-3 0  9999", "line2": "2 57399  97.2879  40.1628 0005471  72.3204 287.8633 15.28125470133710"}}, "geometry": {"type": "Point", "coordinates": [86.28222453103349, -79.84843433655101]}}, {"type": "Feature", "properties": {"norad_id": 57400, "name": "TIANMU-1 08", "group": "weather", "lat": 78.69515161949019, "lon": -99.7438243698201, "alt_km": 469.5759669448689, "timestamp": "2025-12-16T21:38:56.812234+00:00", "meta": {"OBJECT_NAME": "TIANMU-1 08", "OBJECT_ID": "2023-101B", "EPOCH": "2025-12-16T07:04:31.130400", "MEAN_MOTION": 15.28107231, "ECCENTRICITY": 0.00074398, "INCLINATION": 97.2868, "RA_OF_ASC_NODE": 39.8639, "ARG_OF_PERICENTER": 74.0937, "MEAN_ANOMALY": 286.1122, "EPHEMERIS_TYPE": 0, "CLASSIFICATION_TYPE": "U", "NORAD_CAT_ID": 57400, "ELEMENT_SET_NO": 999, "REV_AT_EPOCH": 13369, "BSTAR": 0.00020660824, "MEAN_MOTION_DOT": 5.593e-05, "MEAN_MOTION_DDOT": 0}, "tle": {"line1": "1 57400U 23101B   25350.29480475  .00005593  00000+0  20661-3 0  9996", "line2": "2 57400  97.2868  39.8639 0007439  74.0937 286.1122 15.28107231133693"}}, "geometry": {"type": "Point", "coordinates": [-99.7438243698201, 78.69515161949019]}}]}